SAR-LUPE 2              
1 31797U 07030A   26195.94010561  .00013863  00000+0  21903-3 0  9994
2 31797  98.1066 303.9047 0004822 202.7703 157.3335 15.53621224 61243
SAPPHIRE                
1 39088U 13009C   26195.90834900  .00000037  00000+0  27951-4 0  9994
2 39088  98.4273  14.7076 0011568 160.7323 199.4302 14.35247541700552
PRAETORIAN SDA_602      
1 65565U 25203A   26195.92915723  .00000018  00000+0  52071-5 0  9998
2 65565  81.3043 345.0821 0007056 118.1689 242.0181 13.83887829 42532
PRAETORIAN SDA_603      
1 65566U 25203B   26195.88516127  .00000035  00000+0  20600-4 0  9990
2 65566  81.3049 345.0448 0010739 115.5465 244.6804 13.83961998 42539
PRAETORIAN SDA_604      
1 65567U 25203C   26195.92252219  .00000016  00000+0  39922-5 0  9992
2 65567  81.3066 345.4654 0006561 121.9656 238.2139 13.83049990 42510
PRAETORIAN SDA_605      
1 65568U 25203D   26195.88224065  .00000026  00000+0  12839-4 0  9994
2 65568  81.3030 345.1435 0009308 113.9615 246.2517 13.83199973 42521
PRAETORIAN SDA_606      
1 65569U 25203E   26195.86741431  .00000023  00000+0  10338-4 0  9993
2 65569  81.3067 345.3952 0007164 116.8562 243.3327 13.83200065 42510
PRAETORIAN SDA_607      
1 65570U 25203F   26195.85790491  .00000099  00000+0  78630-4 0  9996
2 65570  81.3048 345.0242 0009936 115.3374 244.8813 13.83758530 42537
PRAETORIAN SDA_608      
1 65571U 25203G   26195.91274729  .00000026  00000+0  12840-4 0  9996
2 65571  81.3019 345.1375 0007048 120.8680 239.3171 13.83819391 42525
PRAETORIAN SDA_609      
1 65572U 25203H   26195.90980594  .00000113  00000+0  90205-4 0  9998
2 65572  81.3062 345.1183 0007966 115.5261 244.6720 13.84211008 42538
PRAETORIAN SDA_610      
1 65573U 25203J   26195.89458527  .00000059  00000+0  42775-4 0  9991
2 65573  81.3021 345.1171 0007781 120.4935 239.6991 13.83528181 42524
PRAETORIAN SDA_611      
1 65574U 25203K   26195.90344882  .00000018  00000+0  55293-5 0  9997
2 65574  81.3023 345.2908 0006589 124.2970 235.8811 13.83311986 42513
PRAETORIAN SDA_612      
1 65575U 25203L   26195.93071878  .00000106  00000+0  82724-4 0  9999
2 65575  81.3041 344.7853 0010330 114.9274 245.2958 13.85039965 42556
PRAETORIAN SDA_613      
1 65576U 25203M   26195.92108517  .00000028  00000+0  15075-4 0  9998
2 65576  81.3012 345.2938 0006767 115.4514 244.7343 13.82767634 42513
PRAETORIAN SDA_614      
1 65577U 25203N   26195.92513583  .00000016  00000+0  31292-5 0  9999
2 65577  81.3027 344.8743 0008210 113.8300 246.3719 13.84778518 42553
PRAETORIAN SDA_615      
1 65578U 25203P   26195.90884803  .00000089  00000+0  68386-4 0  9997
2 65578  81.3039 344.8713 0010207 114.5299 245.6923 13.84437703 42544
PRAETORIAN SDA_616      
1 65579U 25203Q   26195.90348922  .00000085  00000+0  66248-4 0  9996
2 65579  81.3081 345.4554 0006673 122.5814 237.5987 13.83269103 42519
PRAETORIAN SDA_617      
1 65580U 25203R   26195.92745833  .00000031  00000+0  17189-4 0  9993
2 65580  81.3050 345.2617 0008473 114.3061 245.8981 13.83152114 42528
PRAETORIAN SDA_618      
1 65581U 25203S   26195.94843116  .00000250  00000+0  21312-3 0  9994
2 65581  81.3035 344.7647 0011095 117.7443 242.4840 13.84223993 42559
PRAETORIAN SDA_619      
1 65582U 25203T   26195.92346271  .00000140  00000+0  11527-3 0  9998
2 65582  81.3058 345.1172 0009404 114.7898 245.4238 13.83804482 43164
PRAETORIAN SDA_620      
1 65583U 25203U   26195.88610912  .00000074  00000+0  56578-4 0  9992
2 65583  81.3049 345.1842 0008793 112.7607 247.4479 13.83205898 42529
PRAETORIAN SDA_621      
1 65584U 25203V   26195.92529957  .00000013  00000+0  12933-5 0  9997
2 65584  81.3033 345.0478 0008485 109.4970 250.7103 13.83803701 42530
PRAETORIAN SDA_601      
1 65585U 25203W   26195.90862805 -.00000076  00000+0 -80054-4 0  9997
2 65585  81.3055 345.3911 0006609 125.3788 234.7987 13.83170179 42516
VICTUS HAZE PUMA        
1 69646U 26142A   26195.78469194  .00001975  00000+0  92002-4 0  9995
2 69646  97.4467  93.0928 0025040 267.3590  92.4779 15.20845903  3866
